UNKNOWN                 
1 81439U          26066.16600677  .00000513  00000+0  15785-2 0  9994
2 81439  67.1624 338.5521 0596036 151.1781 212.3584 12.62653678272555
UNKNOWN                 
1 81449U          26065.51710208  .00129882  00000+0  63799-2 0  9994
2 81449  66.7879 104.8177 0023320  18.4610 341.7374 15.17099882646183
UNKNOWN                 
1 81478U          26066.23796052  .00004732  00000+0  16836-2 0  9993
2 81478  98.9512 345.3563 0145558 112.5481  40.4041 14.29031937635009
UNKNOWN                 
1 81488U          26066.14569830  .00000218  00000+0  37231-3 0  9994
2 81488  99.9933 305.0388 0044652 149.5336   3.6043 13.56551508608078
UNKNOWN                 
1 81497U          26060.98000182  .00003724  00000+0  33385-2 0  9990
2 81497 100.2999 328.2356 0027031 170.1750 255.6004 13.84808267227262
UNKNOWN                 
1 81499U          26065.40613901  .00004153  00000+0  11323-2 0  9998
2 81499  74.0478  64.7347 0002728 235.8602 124.2298 14.47678161494526
UNKNOWN                 
1 81535U          26066.44709307  .00001361  00000+0  57325-3 0  9991
2 81535  98.1901 146.7157 0233561 263.3265  94.1279 14.13642361399363
UNKNOWN                 
1 81536U          26064.37164243  .00000691  00000+0  44777-2 0  9997
2 81536 101.9676 291.4387 0018378 119.6505  62.2506 12.55976218562182
UNKNOWN                 
1 81537U          26061.36988542  .00000297  00000+0  19949-3 0  9996
2 81537  71.0398 304.5004 0075868  31.0100 329.5464 14.07156543631660
UNKNOWN                 
1 81552U          26066.25397785  .00000870  00000+0  19458-2 0  9990
2 81552  99.0679 346.3232 0256566 174.9772 185.4012 13.18325114590388
UNKNOWN                 
1 81599U          26065.54603071  .00000030  00000+0  16183-3 0  9991
2 81599  67.2921  99.6646 0246746  22.3697 129.5716 13.31539553596233
UNKNOWN                 
1 81605U          26065.13508409 -.00001613  00000+0 -61990-2 0  9998
2 81605  56.4354 337.3034 0149171 254.5569 103.8838 12.81426946196898
